1 28654U 05018A   24353.13100204  .00000467  00000-0  27190-3 0  9996
2 28654  98.8604  68.4571 0013277 260.6094  99.3578 14.13455819  9247